SCS-01 D                
1 63985U 25100D   26068.75607686  .00032471  00000+0  10528-2 0  9990
2 63985  97.3730 145.4097 0006346 266.2302  93.8214 15.31902149 45621
STARLINK-34936          
1 65898U 25224S   26068.22014288  .00023208  00000+0  79361-3 0  9993
2 65898  53.1610  13.4363 0001186  75.2552 284.8580 15.30184830 24808
